AOR-E (EGNOS/PRN 120)   
1 24307U 96053A   13082.32874266 -.00000134  00000-0  00000+0 0  6334
2 24307   0.0906  48.6804 0006347 324.2850 270.8385  1.00272002 60572
ARTEMIS (EGNOS/PRN 124) 
1 26863U 01029A   13083.12590861  .00000117  00000-0  00000+0 0  4649
2 26863  10.4721  50.8580 0003760 355.5800 202.1320  1.00277100 43948
MTSAT-1R (MSAS/PRN 129) 
1 28622U 05006A   13081.24557834 -.00000293  00000-0  10000-3 0  8439
2 28622   0.0525 324.8199 0000905  46.8010  36.7112  1.00270773 29539
CRE (WAAS/PRN 138)      
1 28868U 05036A   13082.19968779 -.00000086  00000-0  10000-3 0  1795
2 28868   0.0330   3.0517 0000235 126.2429  16.1170  1.00273843 27689
CRW (WAAS/PRN 135)      
1 28884U 05041A   13082.42800272  .00000067  00000-0  00000+0 0  4772
2 28884   0.0321  25.9221 0001343   0.0530 176.1779  1.00272551 27255
IOR-W (EGNOS/PRN 126)   
1 28899U 05044A   13083.06733377  .00000125  00000-0  00000+0 0  6433
2 28899   2.2677 346.9930 0002421  37.9895 206.0243  1.00264442 27050
MTSAT-2 (MSAS/PRN 137)  
1 28937U 06004A   13082.64156851 -.00000254  00000-0  00000+0 0  3635
2 28937   0.0552 261.5548 0004296 110.2457 185.4518  1.00269220 26029
AMR (WAAS/PRN 133)      
1 33278U 08039A   13082.37010670 -.00000152  00000-0  00000+0 0  1160
2 33278   3.0100 345.9395 0005269 103.1814 127.4218  1.00271357 16869
QZS-1 (QZSS/PRN 183)    
1 37158U 10045A   13082.50882676 -.00000206  00000-0  00000+0 0  5017
2 37158  40.6415 181.8487 0751238 270.0280  47.7071  1.00256292  9280
GSAT-8 (GAGAN/PRN 127)  
1 37605U 11022A   13080.08613271  .00000072  00000-0  10000-3 0  4221
2 37605   0.0153 142.1143 0005615 152.7991 329.8885  1.00272760  6755
LUCH 5A (SDCM/PRN 140)  
1 37951U 11074B   13082.41101899 -.00000065  00000-0  00000+0 0  3103
2 37951   3.8836 260.5077 0000923  51.4127 183.9776  1.00274059  4717
GSAT-10 (GAGAN/PRN 128) 
1 38779U 12051B   13081.98740940 -.00000177  00000-0  10000-3 0  1168
2 38779   0.0356 251.2441 0001287  91.3441 276.5187  1.00272535  1810
LUCH 5B (SDCM/PRN 125)  
1 38977U 12061A   13082.32874266 -.00000137  00000-0  00000+0 0  1135
2 38977   0.3879 114.6535 0002196 305.2451 223.3882  1.00274921  1708
